STARLINK-36730          
1 67874U 26034AA  26070.23088557  .00449907  00000+0  21504-2 0  9996
2 67874  53.1589 203.4199 0001217 154.6171 205.4912 15.81033677  4186
STARLINK-36727          
1 67875U 26034AB  26070.29335825  .00273378  00000+0  13402-2 0  9991
2 67875  53.1590 203.0966 0001156  30.7275 329.3815 15.80954634  4191
STARLINK-36743          
1 67876U 26034AC  26070.29260702  .00207083  00000+0  10250-2 0  9991
2 67876  53.1594 203.0913 0000491  63.1827 296.9246 15.80930416  4191
STARLINK-36784          
1 67877U 26034AD  26070.22864177  .00199929  00000+0  99056-3 0  9992
2 67877  53.1595 203.4034 0002049   9.9447 350.1616 15.80930214  4187
STARLINK-36689          
1 67878U 26034AE  26069.97500465  .00288364  00000+0  14080-2 0  9995
2 67878  53.1588 204.6656 0000410  67.8847 292.2219 15.80999734  4143
STARLINK-36818          
1 67879U 26035A   26070.25002315 -.01069095  00000+0 -54857-2 0  9998
2 67879  97.2749   2.6730 0001319  98.9556 345.7324 15.83795933  4006
STARLINK-36821          
1 67880U 26035B   26070.25002315 -.01076156  00000+0 -55250-2 0  9994
2 67880  97.2742   2.6764 0001344  97.7971 355.5154 15.83801722  4008
STARLINK-36808          
1 67881U 26035C   26070.25002315 -.01066157  00000+0 -54547-2 0  9993
2 67881  97.2744   2.6744 0001197 100.6892 348.0350 15.83851107  4008
STARLINK-36817          
1 67882U 26035D   26070.25002315 -.01106050  00000+0 -57214-2 0  9995
2 67882  97.2727   2.6788 0001272 101.1363   1.2918 15.83720436  4009
STARLINK-36856          
1 67883U 26035E   26070.25002315 -.01085832  00000+0 -55980-2 0  9998
2 67883  97.2736   2.6777 0001231  95.2447   2.7149 15.83739769  4000
STARLINK-36842          
1 67884U 26035F   26070.25002315 -.01163720  00000+0 -59345-2 0  9991
2 67884  97.2726   2.6807 0001345  88.1533  18.6637 15.83725401  4003
STARLINK-36826          
1 67885U 26035G   26070.25002315 -.01179923  00000+0 -60154-2 0  9994
2 67885  97.2724   2.6824 0001363  91.6298  19.3537 15.83765307  4004
