CCSDS_OMM_VERS = 2.0
CREATION_DATE  = 
ORIGINATOR     = 

OBJECT_NAME    = STARLINK-36730
OBJECT_ID      = 2026-034AA
CENTER_NAME    = EARTH
REF_FRAME      = TEME
TIME_SYSTEM    = UTC
MEAN_ELEMENT_THEORY = SGP/SGP4

EPOCH          = 2026-03-11T05:32:28.513248
MEAN_MOTION    = 15.81033677
ECCENTRICITY   = .00012175
INCLINATION    = 53.1589
RA_OF_ASC_NODE = 203.4199
ARG_OF_PERICENTER = 154.6171
MEAN_ANOMALY   = 205.4912

EPHEMERIS_TYPE = 0
CLASSIFICATION_TYPE = U
NORAD_CAT_ID   = 67874
ELEMENT_SET_NO = 999
REV_AT_EPOCH   = 418
BSTAR          = .21503557E-2
MEAN_MOTION_DOT = .449907E-2
MEAN_MOTION_DDOT = 0

CCSDS_OMM_VERS = 2.0
CREATION_DATE  = 
ORIGINATOR     = 

OBJECT_NAME    = STARLINK-36727
OBJECT_ID      = 2026-034AB
CENTER_NAME    = EARTH
REF_FRAME      = TEME
TIME_SYSTEM    = UTC
MEAN_ELEMENT_THEORY = SGP/SGP4

EPOCH          = 2026-03-11T07:02:26.152800
MEAN_MOTION    = 15.80954634
ECCENTRICITY   = .00011568
INCLINATION    = 53.1590
RA_OF_ASC_NODE = 203.0966
ARG_OF_PERICENTER = 30.7275
MEAN_ANOMALY   = 329.3815

EPHEMERIS_TYPE = 0
CLASSIFICATION_TYPE = U
NORAD_CAT_ID   = 67875
ELEMENT_SET_NO = 999
REV_AT_EPOCH   = 419
BSTAR          = .13401685E-2
MEAN_MOTION_DOT = .273378E-2
MEAN_MOTION_DDOT = 0

CCSDS_OMM_VERS = 2.0
CREATION_DATE  = 
ORIGINATOR     = 

OBJECT_NAME    = STARLINK-36743
OBJECT_ID      = 2026-034AC
CENTER_NAME    = EARTH
REF_FRAME      = TEME
TIME_SYSTEM    = UTC
MEAN_ELEMENT_THEORY = SGP/SGP4

EPOCH          = 2026-03-11T07:01:21.246528
MEAN_MOTION    = 15.80930416
ECCENTRICITY   = .00004918
INCLINATION    = 53.1594
RA_OF_ASC_NODE = 203.0913
ARG_OF_PERICENTER = 63.1827
MEAN_ANOMALY   = 296.9246

EPHEMERIS_TYPE = 0
CLASSIFICATION_TYPE = U
NORAD_CAT_ID   = 67876
ELEMENT_SET_NO = 999
REV_AT_EPOCH   = 419
BSTAR          = .1025026E-2
MEAN_MOTION_DOT = .207083E-2
MEAN_MOTION_DDOT = 0

CCSDS_OMM_VERS = 2.0
CREATION_DATE  = 
ORIGINATOR     = 

OBJECT_NAME    = STARLINK-36784
OBJECT_ID      = 2026-034AD
CENTER_NAME    = EARTH
REF_FRAME      = TEME
TIME_SYSTEM    = UTC
MEAN_ELEMENT_THEORY = SGP/SGP4

EPOCH          = 2026-03-11T05:29:14.648928
MEAN_MOTION    = 15.80930214
ECCENTRICITY   = .0002049
INCLINATION    = 53.1595
RA_OF_ASC_NODE = 203.4034
ARG_OF_PERICENTER = 9.9447
MEAN_ANOMALY   = 350.1616

EPHEMERIS_TYPE = 0
CLASSIFICATION_TYPE = U
NORAD_CAT_ID   = 67877
ELEMENT_SET_NO = 999
REV_AT_EPOCH   = 418
BSTAR          = .99056021E-3
MEAN_MOTION_DOT = .199929E-2
MEAN_MOTION_DDOT = 0

CCSDS_OMM_VERS = 2.0
CREATION_DATE  = 
ORIGINATOR     = 

OBJECT_NAME    = STARLINK-36689
OBJECT_ID      = 2026-034AE
CENTER_NAME    = EARTH
REF_FRAME      = TEME
TIME_SYSTEM    = UTC
MEAN_ELEMENT_THEORY = SGP/SGP4

EPOCH          = 2026-03-10T23:24:00.401760
MEAN_MOTION    = 15.80999734
ECCENTRICITY   = .00004108
INCLINATION    = 53.1588
RA_OF_ASC_NODE = 204.6656
ARG_OF_PERICENTER = 67.8847
MEAN_ANOMALY   = 292.2219

EPHEMERIS_TYPE = 0
CLASSIFICATION_TYPE = U
NORAD_CAT_ID   = 67878
ELEMENT_SET_NO = 999
REV_AT_EPOCH   = 414
BSTAR          = .14079815E-2
MEAN_MOTION_DOT = .288364E-2
MEAN_MOTION_DDOT = 0

CCSDS_OMM_VERS = 2.0
CREATION_DATE  = 
ORIGINATOR     = 

OBJECT_NAME    = STARLINK-36818
OBJECT_ID      = 2026-035A
CENTER_NAME    = EARTH
REF_FRAME      = TEME
TIME_SYSTEM    = UTC
MEAN_ELEMENT_THEORY = SGP/SGP4

EPOCH          = 2026-03-11T06:00:02.000160
MEAN_MOTION    = 15.83795933
ECCENTRICITY   = .00013195
INCLINATION    = 97.2749
RA_OF_ASC_NODE = 2.6730
ARG_OF_PERICENTER = 98.9556
MEAN_ANOMALY   = 345.7324

EPHEMERIS_TYPE = 0
CLASSIFICATION_TYPE = U
NORAD_CAT_ID   = 67879
ELEMENT_SET_NO = 999
REV_AT_EPOCH   = 400
BSTAR          = -.54856586E-2
MEAN_MOTION_DOT = -.1069095E-1
MEAN_MOTION_DDOT = 0

CCSDS_OMM_VERS = 2.0
CREATION_DATE  = 
ORIGINATOR     = 

OBJECT_NAME    = STARLINK-36821
OBJECT_ID      = 2026-035B
CENTER_NAME    = EARTH
REF_FRAME      = TEME
TIME_SYSTEM    = UTC
MEAN_ELEMENT_THEORY = SGP/SGP4

EPOCH          = 2026-03-11T06:00:02.000160
MEAN_MOTION    = 15.83801722
ECCENTRICITY   = .00013445
INCLINATION    = 97.2742
RA_OF_ASC_NODE = 2.6764
ARG_OF_PERICENTER = 97.7971
MEAN_ANOMALY   = 355.5154

EPHEMERIS_TYPE = 0
CLASSIFICATION_TYPE = U
NORAD_CAT_ID   = 67880
ELEMENT_SET_NO = 999
REV_AT_EPOCH   = 400
BSTAR          = -.55249905E-2
MEAN_MOTION_DOT = -.1076156E-1
MEAN_MOTION_DDOT = 0

CCSDS_OMM_VERS = 2.0
CREATION_DATE  = 
ORIGINATOR     = 

OBJECT_NAME    = STARLINK-36808
OBJECT_ID      = 2026-035C
CENTER_NAME    = EARTH
REF_FRAME      = TEME
TIME_SYSTEM    = UTC
MEAN_ELEMENT_THEORY = SGP/SGP4

EPOCH          = 2026-03-11T06:00:02.000160
MEAN_MOTION    = 15.83851107
ECCENTRICITY   = .0001197
INCLINATION    = 97.2744
RA_OF_ASC_NODE = 2.6744
ARG_OF_PERICENTER = 100.6892
MEAN_ANOMALY   = 348.0350

EPHEMERIS_TYPE = 0
CLASSIFICATION_TYPE = U
NORAD_CAT_ID   = 67881
ELEMENT_SET_NO = 999
REV_AT_EPOCH   = 400
BSTAR          = -.54546523E-2
MEAN_MOTION_DOT = -.1066157E-1
MEAN_MOTION_DDOT = 0

CCSDS_OMM_VERS = 2.0
CREATION_DATE  = 
ORIGINATOR     = 

OBJECT_NAME    = STARLINK-36817
OBJECT_ID      = 2026-035D
CENTER_NAME    = EARTH
REF_FRAME      = TEME
TIME_SYSTEM    = UTC
MEAN_ELEMENT_THEORY = SGP/SGP4

EPOCH          = 2026-03-11T06:00:02.000160
MEAN_MOTION    = 15.83720436
ECCENTRICITY   = .00012727
INCLINATION    = 97.2727
RA_OF_ASC_NODE = 2.6788
ARG_OF_PERICENTER = 101.1363
MEAN_ANOMALY   = 1.2918

EPHEMERIS_TYPE = 0
CLASSIFICATION_TYPE = U
NORAD_CAT_ID   = 67882
ELEMENT_SET_NO = 999
REV_AT_EPOCH   = 400
BSTAR          = -.57214097E-2
MEAN_MOTION_DOT = -.110605E-1
MEAN_MOTION_DDOT = 0

CCSDS_OMM_VERS = 2.0
CREATION_DATE  = 
ORIGINATOR     = 

OBJECT_NAME    = STARLINK-36856
OBJECT_ID      = 2026-035E
CENTER_NAME    = EARTH
REF_FRAME      = TEME
TIME_SYSTEM    = UTC
MEAN_ELEMENT_THEORY = SGP/SGP4

EPOCH          = 2026-03-11T06:00:02.000160
MEAN_MOTION    = 15.83739769
ECCENTRICITY   = .00012312
INCLINATION    = 97.2736
RA_OF_ASC_NODE = 2.6777
ARG_OF_PERICENTER = 95.2447
MEAN_ANOMALY   = 2.7149

EPHEMERIS_TYPE = 0
CLASSIFICATION_TYPE = U
NORAD_CAT_ID   = 67883
ELEMENT_SET_NO = 999
REV_AT_EPOCH   = 400
BSTAR          = -.55980242E-2
MEAN_MOTION_DOT = -.1085832E-1
MEAN_MOTION_DDOT = 0

CCSDS_OMM_VERS = 2.0
CREATION_DATE  = 
ORIGINATOR     = 

OBJECT_NAME    = STARLINK-36842
OBJECT_ID      = 2026-035F
CENTER_NAME    = EARTH
REF_FRAME      = TEME
TIME_SYSTEM    = UTC
MEAN_ELEMENT_THEORY = SGP/SGP4

EPOCH          = 2026-03-11T06:00:02.000160
MEAN_MOTION    = 15.83725401
ECCENTRICITY   = .00013458
INCLINATION    = 97.2726
RA_OF_ASC_NODE = 2.6807
ARG_OF_PERICENTER = 88.1533
MEAN_ANOMALY   = 18.6637

EPHEMERIS_TYPE = 0
CLASSIFICATION_TYPE = U
NORAD_CAT_ID   = 67884
ELEMENT_SET_NO = 999
REV_AT_EPOCH   = 400
BSTAR          = -.59344804E-2
MEAN_MOTION_DOT = -.116372E-1
MEAN_MOTION_DDOT = 0

CCSDS_OMM_VERS = 2.0
CREATION_DATE  = 
ORIGINATOR     = 

OBJECT_NAME    = STARLINK-36826
OBJECT_ID      = 2026-035G
CENTER_NAME    = EARTH
REF_FRAME      = TEME
TIME_SYSTEM    = UTC
MEAN_ELEMENT_THEORY = SGP/SGP4

EPOCH          = 2026-03-11T06:00:02.000160
MEAN_MOTION    = 15.83765307
ECCENTRICITY   = .00013639
INCLINATION    = 97.2724
RA_OF_ASC_NODE = 2.6824
ARG_OF_PERICENTER = 91.6298
MEAN_ANOMALY   = 19.3537

EPHEMERIS_TYPE = 0
CLASSIFICATION_TYPE = U
NORAD_CAT_ID   = 67885
ELEMENT_SET_NO = 999
REV_AT_EPOCH   = 400
BSTAR          = -.60154048E-2
MEAN_MOTION_DOT = -.1179923E-1
MEAN_MOTION_DDOT = 0

